NORAD_CAT_ID,OBJECT_NAME,OBJECT_TYPE,EPOCH,MEAN_MOTION,ECCENTRICITY,INCLINATION,RA_OF_ASC_NODE,ARG_OF_PERICENTER,MEAN_ANOMALY,BSTAR,MEAN_MOTION_DOT,MEAN_MOTION_DDOT,TLE_LINE0,TLE_LINE1,TLE_LINE2,SEMIMAJOR_AXIS,PERIOD,APOGEE,PERIGEE,DECAYED
54005.0,STARLINK-5135,PAYLOAD,2023-05-11 09:24:36,15.08834582,0.0001341,53.215,172.4972,75.9819,284.1323,0.00025534,3.778e-05,0.0,0 STARLINK-5135,1 54005U 22125AT  23131.39209341  .00003778  00000-0  25534-3 0  9994,2 54005  53.2150 172.4972 0001341  75.9819 284.1323 15.08834582 33476,6917.897,95.438,540.69,538.834,0.0
54005.0,STARLINK-5135,PAYLOAD,2023-05-11 23:43:04,15.08849966,0.000119,53.2149,169.8187,91.1489,268.9639,0.00053344,8.214e-05,0.0,0 STARLINK-5135,1 54005U 22125AT  23131.98824950  .00008214  00000-0  53344-3 0  9998,2 54005  53.2149 169.8187 0001190  91.1489 268.9639 15.08849966 33615,6917.85,95.437,540.538,538.892,0.0
54005.0,STARLINK-5135,PAYLOAD,2023-05-12 18:47:41,15.08866182,0.0001172,53.215,166.2506,90.8799,269.2327,0.00059991,9.279e-05,0.0,0 STARLINK-5135,1 54005U 22125AT  23132.78312038  .00009279  00000-0  59991-3 0  9992,2 54005  53.2150 166.2506 0001172  90.8799 269.2327 15.08866182 33687,6917.8,95.436,540.476,538.855,0.0
54005.0,STARLINK-5135,PAYLOAD,2023-05-13 10:41:32,15.08858784,0.000127,53.2153,163.2772,106.4732,253.64,0.00018065,2.59e-05,0.0,0 STARLINK-5135,1 54005U 22125AT  23133.44551351  .00002590  00000-0  18065-3 0  9995,2 54005  53.2153 163.2772 0001270 106.4732 253.6400 15.08858784 33837,6917.823,95.436,540.567,538.809,0.0
54005.0,STARLINK-5135,PAYLOAD,2023-05-13 18:38:28,15.08850189,0.0001248,53.2151,161.7903,95.7425,264.3709,-4.2317e-05,-9.61e-06,0.0,0 STARLINK-5135,1 54005U 22125AT  23133.77671366 -.00000961  00000-0 -42317-4 0  9990,2 54005  53.2151 161.7903 0001248  95.7425 264.3709 15.08850189 33885,6917.849,95.437,540.578,538.851,0.0
54005.0,STARLINK-5135,PAYLOAD,2023-05-14 10:32:20,15.08834992,0.0001303,53.2157,158.8178,101.6379,258.4759,-0.00011681,-2.146e-05,0.0,0 STARLINK-5135,1 54005U 22125AT  23134.43912988 -.00002146  00000-0 -11681-3 0  9998,2 54005  53.2157 158.8178 0001303 101.6379 258.4759 15.08834992 33983,6917.896,95.438,540.662,538.859,0.0
54005.0,STARLINK-5135,PAYLOAD,2023-05-14 18:29:16,15.08836349,0.0001246,53.216,157.3326,103.3193,256.7938,-5.3957e-05,-1.146e-05,0.0,0 STARLINK-5135,1 54005U 22125AT  23134.77032741 -.00001146  00000-0 -53957-4 0  9997,2 54005  53.2160 157.3326 0001246 103.3193 256.7938 15.08836349 33983,6917.892,95.438,540.619,538.895,0.0
54005.0,STARLINK-5135,PAYLOAD,2023-05-15 08:47:44,15.08840718,0.0001332,53.2167,154.6544,88.9432,271.1713,-6.6918e-06,-3.94e-06,0.0,0 STARLINK-5135,1 54005U 22125AT  23135.36648373 -.00000394  00000-0 -66918-5 0  9993,2 54005  53.2167 154.6544 0001332  88.9432 271.1713 15.08840718 34126,6917.878,95.438,540.665,538.822,0.0
54005.0,STARLINK-5135,PAYLOAD,2023-05-15 18:20:02,15.08841109,0.0001349,53.2171,152.8696,84.3692,275.7454,2.1535e-05,5.5e-07,0.0,0 STARLINK-5135,1 54005U 22125AT  23135.76392262  .00000055  00000-0  21535-4 0  9997,2 54005  53.2171 152.8696 0001349  84.3692 275.7454 15.08841109 34133,6917.877,95.437,540.675,538.809,0.0
54005.0,STARLINK-5135,PAYLOAD,2023-05-16 10:13:53,15.08841668,0.0001155,53.2158,149.8954,84.3892,275.7232,0.00016114,2.278e-05,0.0,0 STARLINK-5135,1 54005U 22125AT  23136.42631939  .00002278  00000-0  16114-3 0  9993,2 54005  53.2158 149.8954 0001155  84.3892 275.7232 15.08841668 34288,6917.875,95.437,540.539,538.941,0.0
54005.0,STARLINK-5135,PAYLOAD,2023-05-17 00:32:22,15.08838072,0.0001205,53.2158,147.2188,84.4092,275.7037,5.7589e-05,6.29e-06,0.0,0 STARLINK-5135,1 54005U 22125AT  23137.02248484  .00000629  00000-0  57589-4 0  9999,2 54005  53.2158 147.2188 0001205  84.4092 275.7037 15.08838072 34376,6917.886,95.438,540.585,538.918,0.0
54005.0,STARLINK-5135,PAYLOAD,2023-05-17 06:53:55,15.08839054,0.0001203,53.2158,146.0294,84.4725,275.6404,5.9224e-05,6.55e-06,0.0,0 STARLINK-5135,1 54005U 22125AT  23137.28744404  .00000655  00000-0  59224-4 0  9997,2 54005  53.2158 146.0294 0001203  84.4725 275.6404 15.08839054 34369,6917.883,95.438,540.581,538.916,0.0
54005.0,STARLINK-5135,PAYLOAD,2023-05-18 06:44:41,15.08844935,0.0001237,53.2157,141.5684,85.742,274.3714,2.9926e-05,1.88e-06,0.0,0 STARLINK-5135,1 54005U 22125AT  23138.28103881  .00000188  00000-0  29926-4 0  9993,2 54005  53.2157 141.5684 0001237  85.7420 274.3714 15.08844935 34560,6917.865,95.437,540.586,538.875,0.0
54005.0,STARLINK-5135,PAYLOAD,2023-05-19 09:46:15,15.08837652,0.0001243,53.2159,136.5133,85.8162,274.2972,2.927e-05,1.78e-06,0.0,0 STARLINK-5135,1 54005U 22125AT  23139.40712289  .00000178  00000-0  29270-4 0  9997,2 54005  53.2159 136.5133 0001243  85.8162 274.2972 15.08837652 34738,6917.888,95.438,540.612,538.893,0.0
54005.0,STARLINK-5135,PAYLOAD,2023-05-20 15:58:34,15.08842925,0.0001225,53.2158,130.8637,83.9925,276.1206,4.1061e-05,3.66e-06,0.0,0 STARLINK-5135,1 54005U 22125AT  23140.66568035  .00000366  00000-0  41061-4 0  9996,2 54005  53.2158 130.8637 0001225  83.9925 276.1206 15.08842925 34920,6917.871,95.437,540.584,538.889,0.0
54005.0,STARLINK-5135,PAYLOAD,2023-05-21 07:52:25,15.08846479,0.0001221,53.2159,127.89,84.7349,275.3782,0.00011971,1.618e-05,0.0,0 STARLINK-5135,1 54005U 22125AT  23141.32807554  .00001618  00000-0  11971-3 0  9999,2 54005  53.2159 127.8900 0001221  84.7349 275.3782 15.08846479 34978,6917.861,95.437,540.57,538.881,0.0
54005.0,STARLINK-5135,PAYLOAD,2023-05-21 15:49:22,15.08833977,0.0001426,53.2159,126.4026,84.4358,275.6797,2.6158e-05,1.28e-06,0.0,0 STARLINK-5135,1 54005U 22125AT  23141.65928731  .00000128  00000-0  26158-4 0  9995,2 54005  53.2159 126.4026 0001426  84.4358 275.6797 15.08833977 35076,6917.899,95.438,540.75,538.777,0.0
54005.0,STARLINK-5135,PAYLOAD,2023-05-22 07:43:14,15.08831439,0.0001582,53.2175,123.4306,104.1891,255.9277,3.6848e-06,-2.29e-06,0.0,0 STARLINK-5135,1 54005U 22125AT  23142.32169275 -.00000229  00000-0  36848-5 0  9991,2 54005  53.2175 123.4306 0001582 104.1891 255.9277 15.08831439 35128,6917.907,95.438,540.866,538.677,0.0
54005.0,STARLINK-5135,PAYLOAD,2023-05-22 15:40:09,15.088341,0.0001442,53.2171,121.943,88.3831,271.7327,3.4992e-06,-2.32e-06,0.0,0 STARLINK-5135,1 54005U 22125AT  23142.65289304 -.00000232  00000-0  34992-5 0  9995,2 54005  53.2171 121.9430 0001442  88.3831 271.7327 15.08834100 35172,6917.898,95.438,540.761,538.766,0.0
54005.0,STARLINK-5135,PAYLOAD,2023-05-23 02:47:51,15.08840504,0.0001377,53.2171,119.8623,94.3357,265.7793,-1.808e-06,-3.17e-06,0.0,0 STARLINK-5135,1 54005U 22125AT  23143.11656963 -.00000317  00000-0 -18080-5 0  9991,2 54005  53.2171 119.8623 0001377  94.3357 265.7793 15.08840504 35297,6917.879,95.438,540.696,538.791,0.0
54005.0,STARLINK-5135,PAYLOAD,2023-05-23 15:30:56,15.08844166,0.0001446,53.2174,117.4818,92.2572,267.8586,-3.8792e-05,-9.05e-06,0.0,0 STARLINK-5135,1 54005U 22125AT  23143.64648892 -.00000905  00000-0 -38792-4 0  9995,2 54005  53.2174 117.4818 0001446  92.2572 267.8586 15.08844166 35328,6917.868,95.437,540.733,538.732,0.0
54005.0,STARLINK-5135,PAYLOAD,2023-05-24 05:49:24,15.08839164,0.0001237,53.2162,114.8058,92.9887,267.1247,0.00015311,2.15e-05,0.0,0 STARLINK-5135,1 54005U 22125AT  23144.24264993  .00002150  00000-0  15311-3 0  9991,2 54005  53.2162 114.8058 0001237  92.9887 267.1247 15.08839164 35460,6917.883,95.438,540.604,538.892,0.0
54005.0,STARLINK-5135,PAYLOAD,2023-05-24 15:21:44,15.08836344,0.000122,53.2162,113.0213,92.7256,267.3875,9.8261e-05,1.276e-05,0.0,0 STARLINK-5135,1 54005U 22125AT  23144.64009382  .00001276  00000-0  98261-4 0  9998,2 54005  53.2162 113.0213 0001220  92.7256 267.3875 15.08836344 35471,6917.892,95.438,540.601,538.913,0.0
54005.0,STARLINK-5135,PAYLOAD,2023-05-25 21:34:03,15.08844521,0.000122,53.2161,107.3716,91.5061,268.6071,8.2215e-05,1.021e-05,0.0,0 STARLINK-5135,1 54005U 22125AT  23145.89864906  .00001021  00000-0  82215-4 0  9997,2 54005  53.2161 107.3716 0001220  91.5061 268.6071 15.08844521 35664,6917.867,95.437,540.576,538.888,0.0
54005.0,STARLINK-5135,PAYLOAD,2023-05-26 03:55:35,15.08847785,0.0001235,53.2162,106.1819,92.9454,267.1679,9.9665e-05,1.299e-05,0.0,0 STARLINK-5135,1 54005U 22125AT  23146.16360562  .00001299  00000-0  99665-4 0  9991,2 54005  53.2162 106.1819 0001235  92.9454 267.1679 15.08847785 35756,6917.857,95.437,540.576,538.867,0.0
54005.0,STARLINK-5135,PAYLOAD,2023-05-26 07:06:21,15.08848653,0.000124,53.2162,105.5871,93.498,266.6154,0.00010512,1.386e-05,0.0,0 STARLINK-5135,1 54005U 22125AT  23146.29608432  .00001386  00000-0  10512-3 0  9996,2 54005  53.2162 105.5871 0001240  93.4980 266.6154 15.08848653 35727,6917.854,95.437,540.577,538.861,0.0
54005.0,STARLINK-5135,PAYLOAD,2023-05-26 21:24:50,15.08836585,0.0001459,53.2154,102.9063,101.9964,258.1192,-1.1045e-06,-3.06e-06,0.0,0 STARLINK-5135,1 54005U 22125AT  23146.89225631 -.00000306  00000-0 -11045-5 0  9995,2 54005  53.2154 102.9063 0001459 101.9964 258.1192 15.08836585 35810,6917.891,95.438,540.765,538.747,0.0
54005.0,STARLINK-5135,PAYLOAD,2023-05-27 02:11:00,15.08834012,0.0001478,53.216,102.017,102.7015,257.4142,-9.1136e-06,-4.33e-06,0.0,0 STARLINK-5135,1 54005U 22125AT  23147.09097738 -.00000433  00000-0 -91136-5 0  9993,2 54005  53.2160 102.0170 0001478 102.7015 257.4142 15.08834012 35892,6917.899,95.438,540.786,538.741,0.0
54005.0,STARLINK-5135,PAYLOAD,2023-05-27 21:15:37,15.08842999,0.0001171,53.2174,98.4502,84.5324,275.5802,4.1517e-07,-2.81e-06,0.0,0 STARLINK-5135,1 54005U 22125AT  23147.88585344 -.00000281  00000-0  41517-6 0  9994,2 54005  53.2174  98.4502 0001171  84.5324 275.5802 15.08842999 35969,6917.871,95.437,540.546,538.926,0.0
54005.0,STARLINK-5135,PAYLOAD,2023-05-28 03:37:09,15.08845961,0.0001292,53.2168,97.2629,83.1641,276.9499,6.4024e-05,7.31e-06,0.0,0 STARLINK-5135,1 54005U 22125AT  23148.15080946  .00000731  00000-0  64024-4 0  9998,2 54005  53.2168  97.2629 0001292  83.1641 276.9499 15.08845961 36050,6917.862,95.437,540.621,538.833,0.0
